$$SOE
2460154.500000000, A.D. 2023-Jul-29 00:00:00.0000, -3.728735248731430E+08, 1.269493554290403E+08, 5.000705701591448E+07,
2460161.500000000, A.D. 2023-Aug-05 00:00:00.0000, -3.768297226862924E+08, 1.171759884514016E+08, 5.257933763302678E+07,
2460168.500000000, A.D. 2023-Aug-12 00:00:00.0000, -3.804960743797241E+08, 1.073124507406071E+08, 5.511117145552846E+07,
2460175.500000000, A.D. 2023-Aug-19 00:00:00.0000, -3.838720594629239E+08, 9.736697663813028E+07, 5.760094354489747E+07,
2460182.500000000, A.D. 2023-Aug-26 00:00:00.0000, -3.869573651599734E+08, 8.734772875496888E+07, 6.004709294745300E+07,
2460189.500000000, A.D. 2023-Sep-02 00:00:00.0000, -3.897518799154269E+08, 7.726279473871976E+07, 6.244811201167202E+07,
2460196.500000000, A.D. 2023-Sep-09 00:00:00.0000, -3.922556870375897E+08, 6.712018426475053E+07, 6.480254566213398E+07,
2460203.500000000, A.D. 2023-Sep-16 00:00:00.0000, -3.944690583191493E+08, 5.692782617344646E+07, 6.710899061525524E+07,
2460210.500000000, A.D. 2023-Sep-23 00:00:00.0000, -3.963924472255158E+08, 4.669356602083310E+07, 6.936609452700686E+07,
2460217.500000000, A.D. 2023-Sep-30 00:00:00.0000, -3.980264819956620E+08, 3.642516521398249E+07, 7.157255520557764E+07,
2460224.500000000, A.D. 2023-Oct-07 00:00:00.0000, -3.993719610145394E+08, 2.613030116898846E+07, 7.372712006489111E+07,
2460231.500000000, A.D. 2023-Oct-14 00:00:00.0000, -4.004298494237244E+08, 1.581656516069495E+07, 7.582858545764679E+07,
2460238.500000000, A.D. 2023-Oct-21 00:00:00.0000, -4.012012737446159E+08, 5.491459452014536E+06, 7.787579572700275E+07,
2460245.500000000, A.D. 2023-Oct-28 00:00:00.0000, -4.016875159367926E+08, -4.837604053236466E+06, 7.986764229505637E+07,
2460252.500000000, A.D. 2023-Nov-04 00:00:00.0000, -4.018900081418303E+08, -1.516330442243217E+07, 8.180306284264918E+07,
2460259.500000000, A.D. 2023-Nov-11 00:00:00.0000, -4.018103279375388E+08, -2.547841218720339E+07, 8.368104051873326E+07,
2460266.500000000, A.D. 2023-Nov-18 00:00:00.0000, -4.014501938842236E+08, -3.577578979587822E+07, 8.550060315727179E+07,
2460273.500000000, A.D. 2023-Nov-25 00:00:00.0000, -4.008114612895067E+08, -4.604839201636940E+07, 8.726082249964966E+07,
2460280.500000000, A.D. 2023-Dec-02 00:00:00.0000, -3.998961181622826E+08, -5.628926631420690E+07, 8.896081342159158E+07,
2460287.500000000, A.D. 2023-Dec-09 00:00:00.0000, -3.987062812766530E+08, -6.649155327762482E+07, 9.059973315499526E+07,
2460294.500000000, A.D. 2023-Dec-16 00:00:00.0000, -3.972441920568091E+08, -7.664848708924100E+07, 9.217678048155524E+07,
2460301.500000000, A.D. 2023-Dec-23 00:00:00.0000, -3.955122119322652E+08, -8.675339536777270E+07, 9.369119492426491E+07,
2460308.500000000, A.D. 2023-Dec-30 00:00:00.0000, -3.935128185002894E+08, -9.679969734044394E+07, 9.514225614666465E+07,
2460315.500000000, A.D. 2024-Jan-06 00:00:00.0000, -3.912486042642753E+08, -1.067809027166507E+08, 9.652928353019014E+07,
2460322.500000000, A.D. 2024-Jan-13 00:00:00.0000, -3.887222747719672E+08, -1.166906130790061E+08, 9.785163549155924E+07,
2460329.500000000, A.D. 2024-Jan-20 00:00:00.0000, -3.859366449242257E+08, -1.265225227153070E+08, 9.910870867975327E+07,
2460336.500000000, A.D. 2024-Jan-27 00:00:00.0000, -3.828946354755347E+08, -1.362704182491756E+08, 1.002999372909894E+08,
2460343.500000000, A.D. 2024-Feb-03 00:00:00.0000, -3.795992701501787E+08, -1.459281780303377E+08, 1.014247924637813E+08,
2460350.500000000, A.D. 2024-Feb-10 00:00:00.0000, -3.760536730961170E+08, -1.554897715868753E+08, 1.024827817069481E+08,
2460357.500000000, A.D. 2024-Feb-17 00:00:00.0000, -3.722610665377301E+08, -1.649492591395957E+08, 1.034734483508400E+08,
2460364.500000000, A.D. 2024-Feb-24 00:00:00.0000, -3.682247685895312E+08, -1.743007911697809E+08, 1.043963710211347E+08,
2460371.500000000, A.D. 2024-Mar-02 00:00:00.0000, -3.639481911977971E+08, -1.835386080784822E+08, 1.052511631304276E+08,
2460378.500000000, A.D. 2024-Mar-09 00:00:00.0000, -3.594348380668162E+08, -1.926570400060676E+08, 1.060374723699151E+08,
2460385.500000000, A.D. 2024-Mar-16 00:00:00.0000, -3.546883021697744E+08, -2.016505066206807E+08, 1.067549801810967E+08,
2460392.500000000, A.D. 2024-Mar-23 00:00:00.0000, -3.497122629429708E+08, -2.105135157722117E+08, 1.074034013075556E+08,
2460399.500000000, A.D. 2024-Mar-30 00:00:00.0000, -3.445104853993381E+08, -2.192406610442805E+08, 1.079824836299466E+08,
2460406.500000000, A.D. 2024-Apr-06 00:00:00.0000, -3.390868209011220E+08, -2.278266215784772E+08, 1.084920079857412E+08,
2460413.500000000, A.D. 2024-Apr-13 00:00:00.0000, -3.334452060381916E+08, -2.362661633404212E+08, 1.089317877172984E+08,
2460420.500000000, A.D. 2024-Apr-20 00:00:00.0000, -3.275896605607267E+08, -2.445541391545594E+08, 1.093016682544971E+08,
2460427.500000000, A.D. 2024-Apr-27 00:00:00.0000, -3.215242858778222E+08, -2.526854880720253E+08, 1.096015268241569E+08,
2460434.500000000, A.D. 2024-May-04 00:00:00.0000, -3.152532640281057E+08, -2.606552347791707E+08, 1.098312722195164E+08,
2460441.500000000, A.D. 2024-May-11 00:00:00.0000, -3.087808568788634E+08, -2.684584891539226E+08, 1.099908445991336E+08,
2460448.500000000, A.D. 2024-May-18 00:00:00.0000, -3.021114054674569E+08, -2.760904459537143E+08, 1.100802153097505E+08,
2460455.500000000, A.D. 2024-May-25 00:00:00.0000, -2.952493294564217E+08, -2.835463846469862E+08, 1.100993867308796E+08,
2460462.500000000, A.D. 2024-Jun-01 00:00:00.0000, -2.881991266386189E+08, -2.908216694502336E+08, 1.100483921316686E+08,
2460469.500000000, A.D. 2024-Jun-08 00:00:00.0000, -2.809653722424936E+08, -2.979117495978407E+08, 1.099272955163617E+08,
2460476.500000000, A.D. 2024-Jun-15 00:00:00.0000, -2.735527176344641E+08, -3.048121593034443E+08, 1.097361914669600E+08,
2460483.500000000, A.D. 2024-Jun-22 00:00:00.0000, -2.659658894198126E+08, -3.115185162407970E+08, 1.094752051715797E+08,
2460490.500000000, A.D. 2024-Jun-29 00:00:00.0000, -2.582096910590592E+08, -3.180265203681318E+08, 1.091444926841339E+08,
2460497.500000000, A.D. 2024-Jul-06 00:00:00.0000, -2.502890043506312E+08, -3.243319555717901E+08, 1.087442409710840E+08,
2460504.500000000, A.D. 2024-Jul-13 00:00:00.0000, -2.422087888275479E+08, -3.304306913096801E+08, 1.082746677980362E+08,
2460511.500000000, A.D. 2024-Jul-20 00:00:00.0000, -2.339740810502788E+08, -3.363186831089373E+08, 1.077360217322900E+08,
2460518.500000000, A.D. 2024-Jul-27 00:00:00.0000, -2.255899944471349E+08, -3.419919728797306E+08, 1.071285822424265E+08,
2460525.500000000, A.D. 2024-Aug-03 00:00:00.0000, -2.170617194239382E+08, -3.474466894231968E+08, 1.064526598383611E+08,
2460532.500000000, A.D. 2024-Aug-10 00:00:00.0000, -2.083945235718388E+08, -3.526790491419416E+08, 1.057085962357093E+08,
2460539.500000000, A.D. 2024-Aug-17 00:00:00.0000, -1.995937519211481E+08, -3.576853569359040E+08, 1.048967645418409E+08,
2460546.500000000, A.D. 2024-Aug-24 00:00:00.0000, -1.906648272091095E+08, -3.624620073101928E+08, 1.040175694594200E+08,
2460553.500000000, A.D. 2024-Aug-31 00:00:00.0000, -1.816132500419747E+08, -3.670054857602673E+08, 1.030714474918668E+08,
2460560.500000000, A.D. 2024-Sep-07 00:00:00.0000, -1.724445985819696E+08, -3.713123703114235E+08, 1.020588671273423E+08,
2460567.500000000, A.D. 2024-Sep-14 00:00:00.0000, -1.631645276699336E+08, -3.753793322190271E+08, 1.009803290741044E+08,
2460574.500000000, A.D. 2024-Sep-21 00:00:00.0000, -1.537787694075059E+08, -3.792031354176282E+08, 9.983636676529500E+07,
2460581.500000000, A.D. 2024-Sep-28 00:00:00.0000, -1.442931356792574E+08, -3.827806379471286E+08, 9.862754691160187E+07,
2460588.500000000, A.D. 2024-Oct-05 00:00:00.0000, -1.347135189368179E+08, -3.861087953572795E+08, 9.735446976360980E+07,
2460595.500000000, A.D. 2024-Oct-12 00:00:00.0000, -1.250458915977970E+08, -3.891846631153033E+08, 9.601776936000530E+07,
2460602.500000000, A.D. 2024-Oct-19 00:00:00.0000, -1.152963058033626E+08, -3.920053982928145E+08, 9.461811390038212E+07,
2460609.500000000, A.D. 2024-Oct-26 00:00:00.0000, -1.054708935607748E+08, -3.945682613385871E+08, 9.315620618065268E+07,
2460616.500000000, A.D. 2024-Nov-02 00:00:00.0000, -9.557586700789633E+07, -3.968706180896794E+08, 9.163278405543962E+07,
2460623.500000000, A.D. 2024-Nov-09 00:00:00.0000, -8.561751869679096E+07, -3.989099420033624E+08, 9.004862091971797E+07,
2460630.500000000, A.D. 2024-Nov-16 00:00:00.0000, -7.560222186326014E+07, -4.006838166125022E+08, 8.840452620650171E+07,
2460637.500000000, A.D. 2024-Nov-23 00:00:00.0000, -6.553643062761531E+07, -4.021899382572837E+08, 8.670134589134081E+07,
2460644.500000000, A.D. 2024-Nov-30 00:00:00.0000, -5.542667991029932E+07, -4.034261191387971E+08, 8.493996298011063E+07,
2460651.500000000, A.D. 2024-Dec-07 00:00:00.0000, -4.527958463448142E+07, -4.043902902765195E+08, 8.312129797489576E+07,
2460658.500000000, A.D. 2024-Dec-14 00:00:00.0000, -3.510183889544026E+07, -4.050805031478606E+08, 8.124630947978455E+07,
2460665.500000000, A.D. 2024-Dec-21 00:00:00.0000, -2.490021740568397E+07, -4.054949312516224E+08, 7.931599505596748E+07,
2460672.500000000, A.D. 2024-Dec-28 00:00:00.0000, -1.468157723228973E+07, -4.056318745639790E+08, 7.733139190079862E+07,
2460679.500000000, A.D. 2025-Jan-04 00:00:00.0000, -4.452857217894970E+06, -4.054897645138294E+08, 7.529357730560067E+07,
2460686.500000000, A.D. 2025-Jan-11 00:00:00.0000, 5.778923104226661E+06, -4.050671678206750E+08, 7.320366919384758E+07,
2460693.500000000, A.D. 2025-Jan-18 00:00:00.0000, 1.600666419517383E+07, -4.043627901155636E+08, 7.106282674720900E+07,
2460700.500000000, A.D. 2025-Jan-25 00:00:00.0000, 2.622318705069099E+07, -4.033754798205958E+08, 6.887225105643302E+07,
2460707.500000000, A.D. 2025-Feb-01 00:00:00.0000, 3.642123379845332E+07, -4.021042323173509E+08, 6.663318577495940E+07,
2460714.500000000, A.D. 2025-Feb-08 00:00:00.0000, 4.659346842387709E+07, -4.005481943840132E+08, 6.434691776886325E+07,
2460721.500000000, A.D. 2025-Feb-15 00:00:00.0000, 5.673247766752077E+07, -3.987066689203867E+08, 6.201477775607720E+07,
$$EOE